{
    "links": {
        "self": "http://www.neowsapp.com/rest/v1/neo/3837583?api_key=iIulBulltgU6a56xZRHN4H3l9WmuAYTsLGpBGhQ2"
    },
    "id": "3837583",
    "neo_reference_id": "3837583",
    "name": "(2019 AH2)",
    "designation": "2019 AH2",
    "nasa_jpl_url": "http://ssd.jpl.nasa.gov/sbdb.cgi?sstr=3837583",
    "absolute_magnitude_h": 24.2,
    "estimated_diameter": {
        "kilometers": {
            "estimated_diameter_min": 0.0384197891,
            "estimated_diameter_max": 0.0859092601
        },
        "meters": {
            "estimated_diameter_min": 38.4197891064,
            "estimated_diameter_max": 85.9092601232
        },
        "miles": {
            "estimated_diameter_min": 0.0238729428,
            "estimated_diameter_max": 0.0533815229
        },
        "feet": {
            "estimated_diameter_min": 126.0491808919,
            "estimated_diameter_max": 281.8545369825
        }
    },
    "is_potentially_hazardous_asteroid": false,
    "close_approach_data": [
        {
            "close_approach_date": "1916-08-28",
            "close_approach_date_full": "1916-Aug-28 01:17",
            "epoch_date_close_approach": -1683412980000,
            "relative_velocity": {
                "kilometers_per_second": "10.4721198011",
                "kilometers_per_hour": "37699.6312838336",
                "miles_per_hour": "23425.0847830021"
            },
            "miss_distance": {
                "astronomical": "0.0786085083",
                "lunar": "30.5787097287",
                "kilometers": "11759665.405557321",
                "miles": "7307117.2474841898"
            },
            "orbiting_body": "Mars"
        },
        {
            "close_approach_date": "2011-12-03",
            "close_approach_date_full": "2011-Dec-03 22:00",
            "epoch_date_close_approach": 1322949600000,
            "relative_velocity": {
                "kilometers_per_second": "16.6545261492",
                "kilometers_per_hour": "59956.2941370412",
                "miles_per_hour": "37254.5095430965"
            },
            "miss_distance": {
                "astronomical": "0.4766283537",
                "lunar": "185.4084295893",
                "kilometers": "71302586.495126619",
                "miles": "44305372.7806365822"
            },
            "orbiting_body": "Earth"
        },
        {
            "close_approach_date": "2019-02-04",
            "close_approach_date_full": "2019-Feb-04 09:23",
            "epoch_date_close_approach": 1549272180000,
            "relative_velocity": {
                "kilometers_per_second": "5.6170526399",
                "kilometers_per_hour": "20221.3895037069",
                "miles_per_hour": "12564.7850502339"
            },
            "miss_distance": {
                "astronomical": "0.1456335582",
                "lunar": "56.6514541398",
                "kilometers": "21786470.107241034",
                "miles": "13537484.7831289092"
            },
            "orbiting_body": "Earth"
        }
    ],
    "orbital_data": {
        "orbit_id": "3",
        "orbit_determination_date": "2019-03-02 06:58:10",
        "first_observation_date": "2019-01-02",
        "last_observation_date": "2019-02-28",
        "data_arc_in_days": 57,
        "observations_used": 18,
        "orbit_uncertainty": "7",
        "minimum_orbit_intersection": ".0878703",
        "jupiter_tisserand_invariant": "4.563",
        "epoch_osculation": "2459000.5",
        "eccentricity": ".2914954962882395",
        "semi_major_axis": "1.465524102736763",
        "inclination": "4.121265877152228",
        "ascending_node_longitude": "221.0724619214911",
        "orbital_period": "648.0192020725177",
        "perihelion_distance": "1.038330427087134",
        "perihelion_argument": "254.219894139602",
        "aphelion_distance": "1.892717778386393",
        "perihelion_time": "2459154.318066622033",
        "mean_anomaly": "274.5480507262268",
        "mean_motion": ".5555390933611772",
        "equinox": "J2000",
        "orbit_class": {
            "orbit_class_type": "AMO",
            "orbit_class_description": "Near-Earth asteroid orbits similar to that of 1221 Amor",
            "orbit_class_range": "1.017 AU < q (perihelion) < 1.3 AU"
        }
    },
    "is_sentry_object": false
}